     2.100          NAVIGATION                              RINEX VERSION / TYPE
fic2rin                                 02/17/2018 00:29:01 PGM / RUN BY / DATE
                                                            END OF HEADER
 2 18  2 16 15 59 44.0  .198557507247D-03 -.105728759081D-10  .000000000000D+00
     .450000000000D+02 -.832500000000D+02  .496556397853D-08  .174844577936D+01
    -.455044209957D-05  .178068277892D-01  .282563269138D-05  .515368174934D+04
     .489584000000D+06 -.180676579475D-06 -.929790955903D+00 -.467523932457D-06
     .949076549351D+00  .319437500000D+03 -.189444711027D+01 -.853642700502D-08
    -.181793286706D-09  .100000000000D+01  .198800000000D+04  .000000000000D+00
     .240000000000D+01  .000000000000D+00 -.204890966415D-07  .450000000000D+02
     .485226000000D+06  .400000000000D+01
10 18  2 16 15 59 44.0  .160631258041D-03  .466116034659D-11  .000000000000D+00
     .200000000000D+01 -.703437500000D+02  .422624746874D-08 -.683851470667D+00
    -.358931720257D-05  .329227000475D-02  .122245401144D-04  .515367606926D+04
     .489584000000D+06  .875443220139D-07  .168261772664D+00  .204890966415D-07
     .961308604282D+00  .142531250000D+03 -.282472423482D+01 -.783996942334D-08
     .921466954226D-10  .100000000000D+01  .198800000000D+04  .000000000000D+00
     .240000000000D+01  .000000000000D+00  .186264514923D-08  .200000000000D+01
     .486216000000D+06  .400000000000D+01
12 18  2 16 15 59 44.0  .349975656718D-03 -.204636307899D-11  .000000000000D+00
     .200000000000D+01  .518437500000D+02  .360300722257D-08  .969785818101D-01
     .267475843430D-05  .695165595971D-02  .125747174025D-04  .515365043449D+04
     .489584000000D+06 -.204890966415D-07 -.290881586008D+01  .130385160446D-06
     .987823567297D+00  .151500000000D+03  .920474208508D+00 -.759210195581D-08
    -.236438420038D-09  .100000000000D+01  .198800000000D+04  .000000000000D+00
     .240000000000D+01  .000000000000D+00 -.125728547573D-07  .200000000000D+01
     .488436000000D+06  .400000000000D+01
 2 18  2 16 17 59 44.0  .198480673134D-03 -.105728759081D-10  .000000000000D+00
     .460000000000D+02 -.768437500000D+02  .481127183736D-08  .279855418839D+01
    -.397488474846D-05  .178059478058D-01  .214576721191D-05  .515368454552D+04
     .496784000000D+06  .122934579849D-06 -.929850338673D+00 -.212341547012D-06
     .949076372338D+00  .328593750000D+03 -.189437847455D+01 -.821355641331D-08
    -.242867259253D-09  .100000000000D+01  .198800000000D+04  .000000000000D+00
     .240000000000D+01  .000000000000D+00 -.204890966415D-07  .460000000000D+02
     .489606000000D+06  .400000000000D+01
10 18  2 16 17 59 44.0  .160664319992D-03  .466116034659D-11  .000000000000D+00
     .600000000000D+01 -.642812500000D+02  .422517599554D-08  .366197545346D+00
    -.331550836563D-05  .329233228695D-02  .123921781778D-04  .515367606354D+04
     .496784000000D+06  .279396772385D-07  .168205191381D+00  .409781932831D-07
     .961309128007D+00  .140437500000D+03 -.282459532540D+01 -.786854204207D-08
     .853606984729D-10  .100000000000D+01  .198800000000D+04  .000000000000D+00
     .240000000000D+01  .000000000000D+00  .186264514923D-08  .600000000000D+01
     .489606000000D+06  .400000000000D+01
12 18  2 16 17 59 44.0  .349961221218D-03 -.204636307899D-11  .000000000000D+00
     .600000000000D+02  .471875000000D+02  .361479342780D-08  .114716454012D+01
     .243261456490D-05  .695116794668D-02  .124964863062D-04  .515364971161D+04
     .496784000000D+06 -.987201929092D-07 -.290887011386D+01  .540167093277D-07
     .987821568951D+00  .154093750000D+03  .920477252841D+00 -.756960101855D-08
    -.300012496725D-09  .100000000000D+01  .198800000000D+04  .000000000000D+00
     .240000000000D+01  .000000000000D+00 -.125728547573D-07  .600000000000D+02
     .489606000000D+06  .400000000000D+01
 1 18  2 16 18  0  0.0 -.291839241982D-04 -.204636307899D-11  .000000000000D+00
     .500000000000D+02 -.736875000000D+02  .449054419205D-08  .241708106312D+01
    -.379793345928D-05  .734039745294D-02  .284239649773D-05  .515367387009D+04
     .496800000000D+06 -.596046447754D-07 -.870828485982D+00 -.670552253723D-07
     .970082402797D+00  .330812500000D+03  .614120054074D+00 -.829605984991D-08
    -.218937691062D-09  .100000000000D+01  .198800000000D+04  .000000000000D+00
     .240000000000D+01  .000000000000D+00  .558793544769D-08  .500000000000D+02
     .489606000000D+06  .400000000000D+01
 3 18  2 16 18  0  0.0  .106687657535D-04  .773070496507D-11  .000000000000D+00
     .480000000000D+02 -.709062500000D+02  .419160316853D-08  .150146164334D+01
    -.381842255592D-05  .118343939539D-02  .119525939226D-04  .515356626511D+04
     .496800000000D+06  .745058059692D-08  .171718791451D+00  .260770320892D-07
     .961194982361D+00  .146406250000D+03  .487044001349D+00 -.784746973576D-08
     .903609067516D-10  .100000000000D+01  .198800000000D+04  .000000000000D+00
     .240000000000D+01  .000000000000D+00  .232830643654D-08  .480000000000D+02
     .489606000000D+06  .400000000000D+01
 4 18  2 16 18  0  0.0  .385651364923D-04  .227373675443D-11  .000000000000D+00
     .890000000000D+02  .391875000000D+02  .510235539073D-08 -.454688339366D+00
     .200979411602D-05  .956531346310D-02  .124070793390D-04  .515368313789D+04
     .496800000000D+06 -.111758708954D-07 -.294289179084D+01  .115483999252D-06
     .980348108577D+00  .148625000000D+03  .893663294240D+00 -.777068082290D-08
    -.327870799992D-09  .100000000000D+01  .198800000000D+04  .000000000000D+00
     .340000000000D+01  .630000000000D+02 -.195577740669D-07  .890000000000D+02
     .489606000000D+06  .400000000000D+01
 5 18  2 16 18  0  0.0 -.141616910696D-04  .909494701773D-12  .000000000000D+00
     .620000000000D+02 -.591250000000D+02  .450411618595D-08 -.893983837147D+00
    -.297650694847D-05  .527044688351D-02  .116415321827D-04  .515365260315D+04
     .496800000000D+06  .968575477600D-07  .151279053654D+00  .465661287308D-07
     .948101924068D+00  .144875000000D+03  .624265472877D+00 -.801247660895D-08
     .910752222200D-10  .100000000000D+01  .198800000000D+04  .000000000000D+00
     .240000000000D+01  .000000000000D+00 -.107102096081D-07  .620000000000D+02
     .489606000000D+06  .400000000000D+01
 6 18  2 16 18  0  0.0  .414396636188D-03 -.454747350886D-12  .000000000000D+00
     .720000000000D+02 -.782187500000D+02  .444982821035D-08  .267395124695D+01
    -.398419797421D-05  .110843789298D-02  .317394733429D-05  .515357448769D+04
     .496800000000D+06  .130385160446D-07 -.879163956205D+00 -.298023223877D-07
     .969809678294D+00  .322500000000D+03 -.123945733827D+01 -.827713048999D-08
    -.225366530278D-09  .100000000000D+01  .198800000000D+04  .000000000000D+00
     .240000000000D+01  .000000000000D+00  .465661287308D-08  .720000000000D+02
     .489606000000D+06  .400000000000D+01
 7 18  2 16 18  0  0.0  .235823914409D-03 -.557065504836D-11  .000000000000D+00
     .810000000000D+02 -.405937500000D+02  .508056876894D-08  .173194410878D+01
    -.207126140594D-05  .111755754333D-01  .559911131859D-05  .515368368721D+04
     .496800000000D+06 -.223517417908D-06  .228443947607D+01  .122934579849D-06
     .959280136702D+00  .276562500000D+03 -.254441896647D+01 -.840713590524D-08
    -.472519682341D-09  .100000000000D+01  .198800000000D+04  .000000000000D+00
     .240000000000D+01  .000000000000D+00 -.111758708954D-07  .810000000000D+02
     .489606000000D+06  .400000000000D+01
 8 18  2 16 18  0  0.0 -.914069823921D-04 -.136424205266D-11  .000000000000D+00
     .900000000000D+02  .104000000000D+03  .438803992233D-08 -.129667078722D+01
     .538490712643D-05  .334287260193D-02  .571832060814D-05  .515376228333D+04
     .496800000000D+06 -.689178705215D-07 -.193573999335D+01 -.558793544769D-08
     .968476088025D+00  .276031250000D+03 -.547541517062D+00 -.819212694926D-08
     .431089385175D-09  .100000000000D+01  .198800000000D+04  .000000000000D+00
     .240000000000D+01  .000000000000D+00  .558793544769D-08  .900000000000D+02
     .489606000000D+06  .400000000000D+01
 9 18  2 16 18  0  0.0  .501449219882D-03  .261479726760D-11  .000000000000D+00
     .660000000000D+02  .503125000000D+02  .502913805522D-08 -.146371027574D+01
     .268965959549D-05  .116382027045D-02  .752322375774D-05  .515367736244D+04
     .496800000000D+06 -.111758708954D-07  .120589049276D+01 -.111758708954D-07
     .952674954782D+00  .234000000000D+03  .176850573046D+01 -.824105755884D-08
     .570738059245D-09  .100000000000D+01  .198800000000D+04  .000000000000D+00
     .240000000000D+01  .000000000000D+00  .139698386192D-08  .660000000000D+02
     .489606000000D+06  .400000000000D+01
11 18  2 16 18  0  0.0 -.736355315894D-03 -.682121026330D-12  .000000000000D+00
     .470000000000D+02  .534375000000D+01  .608632494844D-08  .170101342556D+01
    -.502914190292D-07  .167446923442D-01  .108033418655D-06  .515375758553D+04
     .496800000000D+06  .296160578728D-06 -.129132868731D+01 -.242143869400D-06
     .903827139960D+00  .344781250000D+03  .174111377293D+01 -.907394939499D-08
     .503592405216D-10  .100000000000D+01  .198800000000D+04  .000000000000D+00
     .240000000000D+01  .000000000000D+00 -.121071934700D-07  .470000000000D+02
     .489606000000D+06  .400000000000D+01
13 18  2 16 18  0  0.0 -.956030562520D-04  .000000000000D+00  .000000000000D+00
     .460000000000D+02  .516250000000D+02  .474126892145D-08 -.313628394332D+01
     .259093940258D-05  .368491047993D-02  .617280602455D-05  .515365366173D+04
     .496800000000D+06  .800937414169D-07  .133614395235D+01  .186264514923D-07
     .968394233370D+00  .264156250000D+03  .162684970951D+01 -.812248119109D-08
     .479305679291D-09  .100000000000D+01  .198800000000D+04  .000000000000D+00
     .240000000000D+01  .000000000000D+00 -.111758708954D-07  .460000000000D+02
     .489606000000D+06  .400000000000D+01
